[
    {
        "Altitude(m)": 557848.9784611564,
        "Argument of Periapsis(deg)": 0.006622991110713501,
        "Eccentricity": 0.0,
        "Inclination(deg)": 53.0,
        "Latitude(deg)": -16.650458639938986,
        "Longitude(deg)": -118.72485484161544,
        "Mean Anomaly(deg)": -20.817507132422435,
        "RAAN(deg)": 354.990143368528,
        "Satellite Name": "Starlink Shell 1 1582",
        "Satellite Number": 1582,
        "Semi-Major Axis(m)": 6931778.249405717,
        "Time(s)": 190
    },
    {
        "Altitude(m)": 557703.7598023464,
        "Argument of Periapsis(deg)": 0.0069715695902247375,
        "Eccentricity": 0.0,
        "Inclination(deg)": 53.0,
        "Latitude(deg)": -16.15973801055504,
        "Longitude(deg)": -118.35741189781452,
        "Mean Anomaly(deg)": -20.19067592886569,
        "RAAN(deg)": 354.9896245984506,
        "Satellite Name": "Starlink Shell 1 1582",
        "Satellite Number": 1582,
        "Semi-Major Axis(m)": 6931778.249405717,
        "Time(s)": 200
    },
    {
        "Altitude(m)": 557560.4089487717,
        "Argument of Periapsis(deg)": 0.007320148069735974,
        "Eccentricity": 0.0,
        "Inclination(deg)": 53.0,
        "Latitude(deg)": -15.668200416925215,
        "Longitude(deg)": -117.99196820827699,
        "Mean Anomaly(deg)": -19.563844725308996,
        "RAAN(deg)": 354.9891058283731,
        "Satellite Name": "Starlink Shell 1 1582",
        "Satellite Number": 1582,
        "Semi-Major Axis(m)": 6931778.249405717,
        "Time(s)": 210
    },
    {
        "Altitude(m)": 557418.9728927198,
        "Argument of Periapsis(deg)": 0.007668726549247212,
        "Eccentricity": 0.0,
        "Inclination(deg)": 53.0,
        "Latitude(deg)": -15.175875025161512,
        "Longitude(deg)": -117.62845341890005,
        "Mean Anomaly(deg)": -18.93701352175225,
        "RAAN(deg)": 354.9885870582956,
        "Satellite Name": "Starlink Shell 1 1582",
        "Satellite Number": 1582,
        "Semi-Major Axis(m)": 6931778.249405717,
        "Time(s)": 220
    },
    {
        "Altitude(m)": 557279.4976255329,
        "Argument of Periapsis(deg)": 0.00801730502875845,
        "Eccentricity": 0.0,
        "Inclination(deg)": 53.0,
        "Latitude(deg)": -14.68279058155313,
        "Longitude(deg)": -117.26679798383188,
        "Mean Anomaly(deg)": -18.310182318195604,
        "RAAN(deg)": 354.98806828821813,
        "Satellite Name": "Starlink Shell 1 1582",
        "Satellite Number": 1582,
        "Semi-Major Axis(m)": 6931778.249405717,
        "Time(s)": 230
    },
    {
        "Altitude(m)": 557142.0281174541,
        "Argument of Periapsis(deg)": 0.008365883508269684,
        "Eccentricity": 0.0,
        "Inclination(deg)": 53.0,
        "Latitude(deg)": -14.188975429680216,
        "Longitude(deg)": -116.90693263456544,
        "Mean Anomaly(deg)": -17.68335111463886,
        "RAAN(deg)": 354.98754951814067,
        "Satellite Name": "Starlink Shell 1 1582",
        "Satellite Number": 1582,
        "Semi-Major Axis(m)": 6931778.249405717,
        "Time(s)": 240
    },
    {
        "Altitude(m)": 557006.6082980253,
        "Argument of Periapsis(deg)": 0.008714461987780921,
        "Eccentricity": 0.0,
        "Inclination(deg)": 53.0,
        "Latitude(deg)": -13.694457527171558,
        "Longitude(deg)": -116.54878936185472,
        "Mean Anomaly(deg)": -17.05651991108206,
        "RAAN(deg)": 354.9870307480632,
        "Satellite Name": "Starlink Shell 1 1582",
        "Satellite Number": 1582,
        "Semi-Major Axis(m)": 6931778.249405717,
        "Time(s)": 250
    },
    {
        "Altitude(m)": 556873.2810369427,
        "Argument of Periapsis(deg)": 0.009063040467292158,
        "Eccentricity": 0.0,
        "Inclination(deg)": 53.0,
        "Latitude(deg)": -13.199264462118899,
        "Longitude(deg)": -116.19230088472634,
        "Mean Anomaly(deg)": -16.429688707525415,
        "RAAN(deg)": 354.98651197798574,
        "Satellite Name": "Starlink Shell 1 1582",
        "Satellite Number": 1582,
        "Semi-Major Axis(m)": 6931778.249405717,
        "Time(s)": 260
    },
    {
        "Altitude(m)": 556742.0881254754,
        "Argument of Periapsis(deg)": 0.009411618946803396,
        "Eccentricity": 0.0,
        "Inclination(deg)": 53.0,
        "Latitude(deg)": -12.703423469159539,
        "Longitude(deg)": -115.83740011948268,
        "Mean Anomaly(deg)": -15.80285750396877,
        "RAAN(deg)": 354.9859932079082,
        "Satellite Name": "Starlink Shell 1 1582",
        "Satellite Number": 1582,
        "Semi-Major Axis(m)": 6931778.249405717,
        "Time(s)": 270
    },
    {
        "Altitude(m)": 556613.0702583761,
        "Argument of Periapsis(deg)": 0.009760197426314633,
        "Eccentricity": 0.0,
        "Inclination(deg)": 53.0,
        "Latitude(deg)": -12.206961445239125,
        "Longitude(deg)": -115.48402116158756,
        "Mean Anomaly(deg)": -15.176026300411975,
        "RAAN(deg)": 354.98547443783076,
        "Satellite Name": "Starlink Shell 1 1582",
        "Satellite Number": 1582,
        "Semi-Major Axis(m)": 6931778.249405717,
        "Time(s)": 280
    },
    {
        "Altitude(m)": 556486.2670163639,
        "Argument of Periapsis(deg)": 0.01010877590582587,
        "Eccentricity": 0.0,
        "Inclination(deg)": 53.0,
        "Latitude(deg)": -11.709904965068635,
        "Longitude(deg)": -115.1320987547031,
        "Mean Anomaly(deg)": -14.549195096855279,
        "RAAN(deg)": 354.9849556677533,
        "Satellite Name": "Starlink Shell 1 1582",
        "Satellite Number": 1582,
        "Semi-Major Axis(m)": 6931778.249405717,
        "Time(s)": 290
    },
    {
        "Altitude(m)": 556361.7168491357,
        "Argument of Periapsis(deg)": 0.010457354385337106,
        "Eccentricity": 0.0,
        "Inclination(deg)": 53.0,
        "Latitude(deg)": -11.21228029628667,
        "Longitude(deg)": -114.7815677597644,
        "Mean Anomaly(deg)": -13.922363893298582,
        "RAAN(deg)": 354.98443689767583,
        "Satellite Name": "Starlink Shell 1 1582",
        "Satellite Number": 1582,
        "Semi-Major Axis(m)": 6931778.249405717,
        "Time(s)": 300
    },
    {
        "Altitude(m)": 556239.4570589508,
        "Argument of Periapsis(deg)": 0.010805932864848343,
        "Eccentricity": 0.0,
        "Inclination(deg)": 53.0,
        "Latitude(deg)": -10.71411341433847,
        "Longitude(deg)": -114.4323641369771,
        "Mean Anomaly(deg)": -13.295532689741886,
        "RAAN(deg)": 354.9839181275983,
        "Satellite Name": "Starlink Shell 1 1582",
        "Satellite Number": 1582,
        "Semi-Major Axis(m)": 6931778.249405717,
        "Time(s)": 310
    },
    {
        "Altitude(m)": 556119.5237847731,
        "Argument of Periapsis(deg)": 0.01115451134435958,
        "Eccentricity": 0.0,
        "Inclination(deg)": 53.0,
        "Latitude(deg)": -10.215430017086566,
        "Longitude(deg)": -114.084424415001,
        "Mean Anomaly(deg)": -12.668701486185089,
        "RAAN(deg)": 354.98339935752085,
        "Satellite Name": "Starlink Shell 1 1582",
        "Satellite Number": 1582,
        "Semi-Major Axis(m)": 6931778.249405717,
        "Time(s)": 320
    },
    {
        "Altitude(m)": 556001.9519869968,
        "Argument of Periapsis(deg)": 0.011503089823870818,
        "Eccentricity": 0.0,
        "Inclination(deg)": 53.0,
        "Latitude(deg)": -9.716255539164402,
        "Longitude(deg)": -113.73768516020073,
        "Mean Anomaly(deg)": -12.041870282628393,
        "RAAN(deg)": 354.98288058744345,
        "Satellite Name": "Starlink Shell 1 1582",
        "Satellite Number": 1582,
        "Semi-Major Axis(m)": 6931778.249405717,
        "Time(s)": 330
    },
    {
        "Altitude(m)": 555886.7754327365,
        "Argument of Periapsis(deg)": 0.011851668303382053,
        "Eccentricity": 0.0,
        "Inclination(deg)": 53.0,
        "Latitude(deg)": -9.216615166082063,
        "Longitude(deg)": -113.39208395884138,
        "Mean Anomaly(deg)": -11.415039079071748,
        "RAAN(deg)": 354.9823618173659,
        "Satellite Name": "Starlink Shell 1 1582",
        "Satellite Number": 1582,
        "Semi-Major Axis(m)": 6931778.249405717,
        "Time(s)": 340
    },
    {
        "Altitude(m)": 555774.0266817422,
        "Argument of Periapsis(deg)": 0.012200246782893292,
        "Eccentricity": 0.0,
        "Inclination(deg)": 53.0,
        "Latitude(deg)": -8.716533848101617,
        "Longitude(deg)": -113.0475588864901,
        "Mean Anomaly(deg)": -10.788207875515003,
        "RAAN(deg)": 354.98184304728846,
        "Satellite Name": "Starlink Shell 1 1582",
        "Satellite Number": 1582,
        "Semi-Major Axis(m)": 6931778.249405717,
        "Time(s)": 350
    },
    {
        "Altitude(m)": 555663.7370728827,
        "Argument of Periapsis(deg)": 0.012548825262404526,
        "Eccentricity": 0.0,
        "Inclination(deg)": 53.0,
        "Latitude(deg)": -8.216036313890958,
        "Longitude(deg)": -112.70404797749786,
        "Mean Anomaly(deg)": -10.161376671958205,
        "RAAN(deg)": 354.981324277211,
        "Satellite Name": "Starlink Shell 1 1582",
        "Satellite Number": 1582,
        "Semi-Major Axis(m)": 6931778.249405717,
        "Time(s)": 360
    },
    {
        "Altitude(m)": 555555.9367112652,
        "Argument of Periapsis(deg)": 0.012897403741915765,
        "Eccentricity": 0.0,
        "Inclination(deg)": 53.0,
        "Latitude(deg)": -7.715147083967517,
        "Longitude(deg)": -112.36149020743807,
        "Mean Anomaly(deg)": -9.53454546840156,
        "RAAN(deg)": 354.9808055071335,
        "Satellite Name": "Starlink Shell 1 1582",
        "Satellite Number": 1582,
        "Semi-Major Axis(m)": 6931778.249405717,
        "Time(s)": 370
    }
]